OBJECT_NAME,OBJECT_ID,EPOCH,MEAN_MOTION,ECCENTRICITY,INCLINATION,RA_OF_ASC_NODE,ARG_OF_PERICENTER,MEAN_ANOMALY,EPHEMERIS_TYPE,CLASSIFICATION_TYPE,NORAD_CAT_ID,ELEMENT_SET_NO,REV_AT_EPOCH,BSTAR,MEAN_MOTION_DOT,MEAN_MOTION_DDOT
TJS-7,2021-077A,2026-07-07T04:34:39.238752,1.00270676,.0003232,0.3065,264.2783,114.9342,235.1424,0,U,49115,999,974,0,-.108E-5,0
CHINASAT 9B,2021-080A,2026-07-07T02:15:05.234112,1.00272719,.0002158,0.0163,66.6267,71.4615,282.1698,0,U,49125,999,1784,0,-.298E-5,0
SHIJIAN-21 (SJ-21),2021-094A,2026-07-06T14:14:17.772864,1.00261189,.00500875,5.1559,61.0612,168.1668,36.5840,0,U,49330,999,555,0,-.337E-5,0
SES-17,2021-095A,2026-07-07T04:29:16.354176,1.00271019,.0001281,0.0214,43.2783,90.4716,151.6318,0,U,49332,999,1805,0,-.257E-5,0
SYRACUSE 4A,2021-095B,2026-07-07T03:42:38.461248,1.00270482,.0001313,0.0219,36.5637,65.4006,284.3371,0,U,49333,999,1814,0,0,0
QZS-1R (MICHIBIKI-1R),2021-096A,2026-07-05T14:25:33.375072,1.00249302,.07555114,37.4964,79.3119,272.0883,281.1819,0,U,49336,999,1719,0,-.258E-5,0
ZHONGXING-1D,2021-114A,2026-07-07T00:40:42.795840,1.00273321,.0000146,0.0564,243.7668,86.7341,94.8775,0,U,49505,999,1701,0,-.321E-5,0
STPSAT-6,2021-118A,2026-07-07T02:57:59.022720,1.00270225,.0000893,0.3690,85.2135,249.2830,243.3557,0,U,49817,999,1677,0,-.3E-6,0
EXPRESS AMU-7,2021-123A,2026-07-06T14:28:58.251072,1.00272292,.0000559,0.0242,281.9499,67.1494,297.7245,0,U,50001,999,1673,0,-.228E-5,0
EXPRESS AMU-3,2021-123B,2026-07-05T22:12:47.581344,1.00269062,.0000463,0.0178,350.4254,17.7985,351.7769,0,U,50002,999,722,0,0,0
TIANLIAN 2-02,2021-124A,2026-07-06T21:26:58.284960,1.00272045,.0001047,0.8495,85.8377,160.6190,171.1431,0,U,50005,999,1681,0,.1E-7,0
TURKSAT 5B,2021-126A,2026-07-07T03:42:38.461248,1.00271433,.0002533,0.0705,336.1977,20.5118,26.0749,0,U,50212,999,1649,0,.161E-5,0
INMARSAT 6-F1,2021-128A,2026-07-07T03:52:43.504032,1.00270013,.0000027,0.0241,281.7135,201.0214,304.3348,0,U,50319,999,1645,0,-.156E-5,0
SHIYAN-12 01 (SY-12 01),2021-129A,2026-07-02T17:30:29.313216,1.00046111,.0002916,3.7121,79.7076,293.3389,217.6296,0,U,50321,999,1665,0,.15E-5,0
SHIYAN-12 02 (SY-12 02),2021-129B,2026-07-02T18:19:57.529056,1.00484340,.0003122,3.7116,79.7099,60.1473,156.9356,0,U,50322,999,1665,0,-.326E-5,0
TJS-9,2021-135A,2026-07-07T04:16:38.837856,1.00267264,.0003434,0.0309,120.5640,306.5572,59.3524,0,U,50574,999,1663,0,-.285E-5,0
GOES 18,2022-021A,2026-07-07T05:09:59.973408,1.00271279,.0000515,0.0027,96.2949,72.8091,56.5731,0,U,51850,999,679,0,.112E-5,0
ZHONGXING-6D,2022-038A,2026-07-06T20:40:27.818976,1.00269269,.0000589,0.0397,91.8561,92.9382,175.2069,0,U,52255,999,1561,0,-.339E-5,0
NILESAT 301,2022-061A,2026-07-07T01:44:15.689184,1.00272626,.0004309,0.0523,331.5103,89.9482,242.6895,0,U,52817,999,1493,0,-.42E-6,0
CMS-02 (GSAT-24),2022-067A,2026-07-07T02:09:50.736384,1.00268669,.0000864,0.0131,50.4978,305.3940,44.6143,0,U,52903,999,1480,0,0,0
MEASAT 3D,2022-067B,2026-07-07T02:12:20.496096,1.00269012,.0000271,0.0278,345.3772,117.1655,307.0978,0,U,52904,999,1484,0,-.226E-5,0
SES-22,2022-071A,2026-07-06T18:15:56.226816,1.00273213,.0001019,0.0347,275.9106,193.2307,310.5886,0,U,52933,999,771,0,.119E-5,0
WFOV (USA 332),2022-073A,2026-07-06T22:54:56.130912,1.00272121,.0001367,3.7582,78.2814,223.1029,86.6018,0,U,52940,999,1456,0,-.349E-5,0
TIANLIAN 2-03,2022-078A,2026-07-07T01:49:15.210336,1.00274184,.0000985,0.7209,77.3764,352.2076,253.3652,0,U,53100,999,1474,0,.87E-6,0
SBIRS GEO-6 (USA 336),2022-092A,2026-07-07T04:08:38.650848,1.00271033,.000189,3.2254,317.7942,148.1161,20.4053,0,U,53355,999,1443,0,-.276E-5,0
EUTELSAT KONNECT VHTS,2022-110A,2026-07-07T03:29:38.218272,1.00268637,.0002972,0.0581,99.2475,341.3751,259.6153,0,U,53765,999,703,0,.32E-6,0
ZHONGXING-1E,2022-112A,2026-07-07T03:52:06.062592,1.00269977,.0000565,0.0398,128.5414,104.6819,191.3321,0,U,53813,999,1404,0,-.134E-5,0
SES-20,2022-123A,2026-07-06T21:51:33.429312,1.00270215,.0001997,0.0199,67.0885,23.9896,58.5838,0,U,53960,999,1373,0,-.86E-6,0
SES-21,2022-123B,2026-07-07T03:10:47.781408,1.00267947,.000104,0.0383,27.2733,77.5296,97.0772,0,U,53961,999,741,0,0,0
GALAXY 33 (G-33),2022-128A,2026-07-07T03:09:43.331328,1.00272897,.0001787,0.0156,314.4069,151.3995,93.7340,0,U,54026,999,1394,0,.94E-6,0
GALAXY 34 (G-34),2022-128B,2026-07-06T16:36:07.829856,1.00275248,.0001829,0.0172,18.6774,102.5440,283.4893,0,U,54027,999,1410,0,0,0
ANGOSAT 2,2022-131A,2026-07-06T20:44:50.764416,1.00272085,.0000046,0.0217,125.5214,258.6800,234.8461,0,U,54033,999,1367,0,.15E-5,0
