TJS-7                   
1 49115U 21077A   26188.19073193 -.00000108  00000+0  00000+0 0  9993
2 49115   0.3065 264.2783 0003232 114.9342 235.1424  1.00270676  9742
CHINASAT 9B             
1 49125U 21080A   26188.09381058 -.00000298  00000+0  00000+0 0  9999
2 49125   0.0163  66.6267 0002158  71.4615 282.1698  1.00272719 17841
SHIJIAN-21 (SJ-21)      
1 49330U 21094A   26187.59326126 -.00000337  00000+0  00000+0 0  9995
2 49330   5.1559  61.0612 0050087 168.1668  36.5840  1.00261189  5557
SES-17                  
1 49332U 21095A   26188.18699484 -.00000257  00000+0  00000+0 0  9995
2 49332   0.0214  43.2783 0001281  90.4716 151.6318  1.00271019 18056
SYRACUSE 4A             
1 49333U 21095B   26188.15461182  .00000000  00000+0  00000+0 0  9990
2 49333   0.0219  36.5637 0001313  65.4006 284.3371  1.00270482 18141
QZS-1R (MICHIBIKI-1R)   
1 49336U 21096A   26186.60108073 -.00000258  00000+0  00000+0 0  9995
2 49336  37.4964  79.3119 0755511 272.0883 281.1819  1.00249302 17193
ZHONGXING-1D            
1 49505U 21114A   26188.02827310 -.00000321  00000+0  00000+0 0  9995
2 49505   0.0564 243.7668 0000146  86.7341  94.8775  1.00273321 17014
STPSAT-6                
1 49817U 21118A   26188.12359980 -.00000030  00000+0  00000+0 0  9996
2 49817   0.3690  85.2135 0000893 249.2830 243.3557  1.00270225 16770
EXPRESS AMU-7           
1 50001U 21123A   26187.60345198 -.00000228  00000+0  00000+0 0  9996
2 50001   0.0242 281.9499 0000559  67.1494 297.7245  1.00272292 16736
EXPRESS AMU-3           
1 50002U 21123B   26186.92555071  .00000000  00000+0  00000+0 0  9991
2 50002   0.0178 350.4254 0000463  17.7985 351.7769  1.00269062  7223
TIANLIAN 2-02           
1 50005U 21124A   26187.89373015  .00000001  00000+0  00000+0 0  9999
2 50005   0.8495  85.8377 0001047 160.6190 171.1431  1.00272045 16816
TURKSAT 5B              
1 50212U 21126A   26188.15461182  .00000161  00000+0  00000+0 0  9991
2 50212   0.0705 336.1977 0002533  20.5118  26.0749  1.00271433 16499
INMARSAT 6-F1           
1 50319U 21128A   26188.16161463 -.00000156  00000+0  00000+0 0  9996
2 50319   0.0241 281.7135 0000027 201.0214 304.3348  1.00270013 16458
SHIYAN-12 01 (SY-12 01) 
1 50321U 21129A   26183.72950594  .00000150  00000+0  00000+0 0  9991
2 50321   3.7121  79.7076 0002916 293.3389 217.6296  1.00046111 16653
SHIYAN-12 02 (SY-12 02) 
1 50322U 21129B   26183.76386029 -.00000326  00000+0  00000+0 0  9998
2 50322   3.7116  79.7099 0003122  60.1473 156.9356  1.00484340 16659
TJS-9                   
1 50574U 21135A   26188.17822729 -.00000285  00000+0  00000+0 0  9990
2 50574   0.0309 120.5640 0003434 306.5572  59.3524  1.00267264 16637
GOES 18                 
1 51850U 22021A   26188.21527747  .00000112  00000+0  00000+0 0  9998
2 51850   0.0027  96.2949 0000515  72.8091  56.5731  1.00271279  6795
ZHONGXING-6D            
1 52255U 22038A   26187.86143309 -.00000339  00000+0  00000+0 0  9996
2 52255   0.0397  91.8561 0000589  92.9382 175.2069  1.00269269 15613
NILESAT 301             
1 52817U 22061A   26188.07240381 -.00000042  00000+0  00000+0 0  9999
2 52817   0.0523 331.5103 0004309  89.9482 242.6895  1.00272626 14936
CMS-02 (GSAT-24)        
1 52903U 22067A   26188.09017056  .00000000  00000+0  00000+0 0  9997
2 52903   0.0131  50.4978 0000864 305.3940  44.6143  1.00268669 14804
MEASAT 3D               
1 52904U 22067B   26188.09190389 -.00000226  00000+0  00000+0 0  9990
2 52904   0.0278 345.3772 0000271 117.1655 307.0978  1.00269012 14848
SES-22                  
1 52933U 22071A   26187.76106744  .00000119  00000+0  00000+0 0  9992
2 52933   0.0347 275.9106 0001019 193.2307 310.5886  1.00273213  7719
WFOV (USA 332)          
1 52940U 22073A   26187.95481633 -.00000349  00000+0  00000+0 0  9992
2 52940   3.7582  78.2814 0001367 223.1029  86.6018  1.00272121 14564
TIANLIAN 2-03           
1 53100U 22078A   26188.07587049  .00000087  00000+0  00000+0 0  9996
2 53100   0.7209  77.3764 0000985 352.2076 253.3652  1.00274184 14749
SBIRS GEO-6 (USA 336)   
1 53355U 22092A   26188.17266957 -.00000276  00000+0  00000+0 0  9998
2 53355   3.2254 317.7942 0001890 148.1161  20.4053  1.00271033 14435
EUTELSAT KONNECT VHTS   
1 53765U 22110A   26188.14558123  .00000032  00000+0  00000+0 0  9999
2 53765   0.0581  99.2475 0002972 341.3751 259.6153  1.00268637  7036
ZHONGXING-1E            
1 53813U 22112A   26188.16118128 -.00000134  00000+0  00000+0 0  9998
2 53813   0.0398 128.5414 0000565 104.6819 191.3321  1.00269977 14042
SES-20                  
1 53960U 22123A   26187.91080358 -.00000086  00000+0  00000+0 0  9994
2 53960   0.0199  67.0885 0001997  23.9896  58.5838  1.00270215 13730
SES-21                  
1 53961U 22123B   26188.13249747  .00000000  00000+0  00000+0 0  9994
2 53961   0.0383  27.2733 0001040  77.5296  97.0772  1.00267947  7415
GALAXY 33 (G-33)        
1 54026U 22128A   26188.13175152  .00000094  00000+0  00000+0 0  9993
2 54026   0.0156 314.4069 0001787 151.3995  93.7340  1.00272897 13943
GALAXY 34 (G-34)        
1 54027U 22128B   26187.69175729  .00000000  00000+0  00000+0 0  9991
2 54027   0.0172  18.6774 0001829 102.5440 283.4893  1.00275248 14101
ANGOSAT 2               
1 54033U 22131A   26187.86447644  .00000150  00000+0  00000+0 0  9995
2 54033   0.0217 125.5214 0000046 258.6800 234.8461  1.00272085 13676
